start=new Date('2022-11-20T00:00:00.000Z').valueOf();
sats=[{"TLE_LINE2":"2 50826  53.2154 182.1581 0002399  39.7452 320.3715 15.08841325 48372","NORAD_CAT_ID":"50826","BSTAR":"0.00015570000000","EPOCH":"2022-11-19T21:22:22.089216","APOAPSIS":"541.401","ELEMENT_SET_NO":"999","RCS_SIZE":"LARGE","GP_ID":"218237355","MEAN_ELEMENT_THEORY":"SGP4","DECAY_DATE":null,"OBJECT_ID":"2022-001Z","REV_AT_EPOCH":"4837","COUNTRY_CODE":"US","MEAN_ANOMALY":"320.3715","MEAN_MOTION_DDOT":"0.0000000000000","RA_OF_ASC_NODE":"182.1581","CLASSIFICATION_TYPE":"U","MEAN_MOTION":"15.08841325","ARG_OF_PERICENTER":"39.7452","OBJECT_NAME":"STARLINK-3337","PERIAPSIS":"538.082","PERIOD":"95.437","SEMIMAJOR_AXIS":"6917.876","EPHEMERIS_TYPE":"0","OBJECT_TYPE":"PAYLOAD","TIME_SYSTEM":"UTC","INCLINATION":"53.2154","ECCENTRICITY":"0.00023990","REF_FRAME":"TEME","SITE":"AFETR","CENTER_NAME":"EARTH","MEAN_MOTION_DOT":"0.00002191","LAUNCH_DATE":"2022-01-06","FILE":"3663561","TLE_LINE1":"1 50826U 22001Z   22323.89053344  .00002191  00000-0  15570-3 0  9998"},{"COUNTRY_CODE":"US","MEAN_ANOMALY":"314.6253","RCS_SIZE":"LARGE","MEAN_ELEMENT_THEORY":"SGP4","GP_ID":"218206584","DECAY_DATE":null,"OBJECT_ID":"2022-001AA","REV_AT_EPOCH":"4823","ELEMENT_SET_NO":"999","TLE_LINE2":"2 50827  53.2167 186.1892 0002835  45.4970 314.6253 15.08758602 48233","BSTAR":"0.00097115000000","NORAD_CAT_ID":"50827","EPOCH":"2022-11-18T23:54:41.512320","APOAPSIS":"541.955","MEAN_MOTION":"15.08758602","ARG_OF_PERICENTER":"45.4970","RA_OF_ASC_NODE":"186.1892","CLASSIFICATION_TYPE":"U","MEAN_MOTION_DDOT":"0.0000000000000","INCLINATION":"53.2167","ECCENTRICITY":"0.00028350","REF_FRAME":"TEME","OBJECT_TYPE":"PAYLOAD","TIME_SYSTEM":"UTC","PERIOD":"95.443","EPHEMERIS_TYPE":"0","SEMIMAJOR_AXIS":"6918.129","OBJECT_NAME":"STARLINK-3329","PERIAPSIS":"538.033","FILE":"3663316","TLE_LINE1":"1 50827U 22001AA  22322.99631380  .00015168  00000-0  97115-3 0  9994","LAUNCH_DATE":"2022-01-06","CENTER_NAME":"EARTH","MEAN_MOTION_DOT":"0.00015168","SITE":"AFETR"},{"CLASSIFICATION_TYPE":"U","RA_OF_ASC_NODE":"186.1997","MEAN_MOTION":"15.08832950","ARG_OF_PERICENTER":"36.5076","MEAN_MOTION_DDOT":"0.0000000000000","OBJECT_ID":"2022-001AB","DECAY_DATE":null,"REV_AT_EPOCH":"4808","RCS_SIZE":"LARGE","MEAN_ELEMENT_THEORY":"SGP4","GP_ID":"218206836","MEAN_ANOMALY":"323.6083","COUNTRY_CODE":"US","NORAD_CAT_ID":"50828","BSTAR":"-0.00003003900000","APOAPSIS":"541.463","EPOCH":"2022-11-18T23:50:44.809152","TLE_LINE2":"2 50828  53.2164 186.1997 0002452  36.5076 323.6083 15.08832950 48083","ELEMENT_SET_NO":"999","LAUNCH_DATE":"2022-01-06","TLE_LINE1":"1 50828U 22001AB  22322.99357418 -.00000766  00000-0 -30039-4 0  9995","FILE":"3663316","SITE":"AFETR","MEAN_MOTION_DOT":"-0.00000766","CENTER_NAME":"EARTH","TIME_SYSTEM":"UTC","OBJECT_TYPE":"PAYLOAD","ECCENTRICITY":"0.00024520","REF_FRAME":"TEME","INCLINATION":"53.2164","PERIAPSIS":"538.071","OBJECT_NAME":"STARLINK-3290","SEMIMAJOR_AXIS":"6917.902","EPHEMERIS_TYPE":"0","PERIOD":"95.438"},{"LAUNCH_DATE":"2022-01-06","FILE":"3663561","TLE_LINE1":"1 50829U 22001AC  22323.79852926 -.00002215  00000-0 -12103-3 0  9991","SITE":"AFETR","CENTER_NAME":"EARTH","MEAN_MOTION_DOT":"-0.00002215","OBJECT_TYPE":"PAYLOAD","TIME_SYSTEM":"UTC","INCLINATION":"53.2174","REF_FRAME":"TEME","ECCENTRICITY":"0.00023170","OBJECT_NAME":"STARLINK-3294","PERIAPSIS":"538.073","PERIOD":"95.436","SEMIMAJOR_AXIS":"6917.811","EPHEMERIS_TYPE":"0","RA_OF_ASC_NODE":"182.5890","CLASSIFICATION_TYPE":"U","ARG_OF_PERICENTER":"37.7220","MEAN_MOTION":"15.08862798","MEAN_MOTION_DDOT":"0.0000000000000","MEAN_ELEMENT_THEORY":"SGP4","GP_ID":"218237105","RCS_SIZE":"LARGE","REV_AT_EPOCH":"4835","DECAY_DATE":null,"OBJECT_ID":"2022-001AC","COUNTRY_CODE":"US","MEAN_ANOMALY":"322.3935","TLE_LINE2":"2 50829  53.2174 182.5890 0002317  37.7220 322.3935 15.08862798 48356","EPOCH":"2022-11-19T19:09:52.928064","APOAPSIS":"541.279","BSTAR":"-0.00012103000000","NORAD_CAT_ID":"50829","ELEMENT_SET_NO":"999"},{"CENTER_NAME":"EARTH","MEAN_MOTION_DOT":"0.00003477","SITE":"AFETR","TLE_LINE1":"1 50830U 22001AD  22323.81602669  .00003477  00000-0  23644-3 0  9994","FILE":"3663561","LAUNCH_DATE":"2022-01-06","SEMIMAJOR_AXIS":"6917.876","EPHEMERIS_TYPE":"0","PERIOD":"95.437","PERIAPSIS":"538.144","OBJECT_NAME":"STARLINK-3278","REF_FRAME":"TEME","ECCENTRICITY":"0.00023080","INCLINATION":"53.2144","TIME_SYSTEM":"UTC","OBJECT_TYPE":"PAYLOAD","MEAN_MOTION_DDOT":"0.0000000000000","ARG_OF_PERICENTER":"41.4539","MEAN_MOTION":"15.08841591","CLASSIFICATION_TYPE":"U","RA_OF_ASC_NODE":"192.5086","ELEMENT_SET_NO":"999","APOAPSIS":"541.337","EPOCH":"2022-11-19T19:35:04.706016","NORAD_CAT_ID":"50830","BSTAR":"0.00023644000000","TLE_LINE2":"2 50830  53.2144 192.5086 0002308  41.4539 318.6628 15.08841591 48229","MEAN_ANOMALY":"318.6628","COUNTRY_CODE":"US","REV_AT_EPOCH":"4822","OBJECT_ID":"2022-001AD","DECAY_DATE":null,"GP_ID":"218236856","MEAN_ELEMENT_THEORY":"SGP4","RCS_SIZE":"LARGE"},{"MEAN_MOTION_DOT":"0.00002384","CENTER_NAME":"EARTH","SITE":"AFETR","TLE_LINE1":"1 50831U 22001AE  22323.88781124  .00002384  00000-0  16782-3 0  9997","FILE":"3663561","LAUNCH_DATE":"2022-01-06","SEMIMAJOR_AXIS":"6917.869","EPHEMERIS_TYPE":"0","PERIOD":"95.437","PERIAPSIS":"537.822","OBJECT_NAME":"STARLINK-3299","ECCENTRICITY":"0.00027640","REF_FRAME":"TEME","INCLINATION":"53.2176","TIME_SYSTEM":"UTC","OBJECT_TYPE":"PAYLOAD","MEAN_MOTION_DDOT":"0.0000000000000","MEAN_MOTION":"15.08843682","ARG_OF_PERICENTER":"40.7233","CLASSIFICATION_TYPE":"U","RA_OF_ASC_NODE":"182.1828","ELEMENT_SET_NO":"999","BSTAR":"0.00016782000000","NORAD_CAT_ID":"50831","EPOCH":"2022-11-19T21:18:26.891136","APOAPSIS":"541.646","TLE_LINE2":"2 50831  53.2176 182.1828 0002764  40.7233 319.3965 15.08843682 48374","MEAN_ANOMALY":"319.3965","COUNTRY_CODE":"US","DECAY_DATE":null,"OBJECT_ID":"2022-001AE","REV_AT_EPOCH":"4837","RCS_SIZE":"LARGE","MEAN_ELEMENT_THEORY":"SGP4","GP_ID":"218237598"},{"CLASSIFICATION_TYPE":"U","RA_OF_ASC_NODE":"195.7990","MEAN_MOTION":"15.08845213","ARG_OF_PERICENTER":"45.4738","MEAN_MOTION_DDOT":"0.0000000000000","DECAY_DATE":null,"OBJECT_ID":"2022-001AF","REV_AT_EPOCH":"4811","RCS_SIZE":"LARGE","MEAN_ELEMENT_THEORY":"SGP4","GP_ID":"218207336","MEAN_ANOMALY":"314.6423","COUNTRY_CODE":"US","NORAD_CAT_ID":"50832","BSTAR":"0.00003957300000","EPOCH":"2022-11-19T02:00:30.801312","APOAPSIS":"541.161","TLE_LINE2":"2 50832  53.2160 195.7990 0002069  45.4738 314.6423 15.08845213 48119","ELEMENT_SET_NO":"999","LAUNCH_DATE":"2022-01-06","TLE_LINE1":"1 50832U 22001AF  22323.08368983  .00000342  00000-0  39573-4 0  9990","FILE":"3663316","SITE":"AFETR","CENTER_NAME":"EARTH","MEAN_MOTION_DOT":"0.00000342","TIME_SYSTEM":"UTC","OBJECT_TYPE":"PAYLOAD","ECCENTRICITY":"0.00020690","REF_FRAME":"TEME","INCLINATION":"53.2160","PERIAPSIS":"538.298","OBJECT_NAME":"STARLINK-3328","EPHEMERIS_TYPE":"0","SEMIMAJOR_AXIS":"6917.864","PERIOD":"95.437"},{"REV_AT_EPOCH":"4837","OBJECT_ID":"2022-001AG","DECAY_DATE":null,"GP_ID":"218236606","MEAN_ELEMENT_THEORY":"SGP4","RCS_SIZE":"LARGE","MEAN_ANOMALY":"235.4741","COUNTRY_CODE":"US","EPOCH":"2022-11-19T21:27:39.929760","APOAPSIS":"540.752","BSTAR":"-0.00003391100000","NORAD_CAT_ID":"50833","TLE_LINE2":"2 50833  53.2172 182.1534 0001463 124.6389 235.4741 15.08841745 48373","ELEMENT_SET_NO":"999","CLASSIFICATION_TYPE":"U","RA_OF_ASC_NODE":"182.1534","ARG_OF_PERICENTER":"124.6389","MEAN_MOTION":"15.08841745","MEAN_MOTION_DDOT":"0.0000000000000","TIME_SYSTEM":"UTC","OBJECT_TYPE":"PAYLOAD","REF_FRAME":"TEME","ECCENTRICITY":"0.00014630","INCLINATION":"53.2172","PERIAPSIS":"538.728","OBJECT_NAME":"STARLINK-3316","EPHEMERIS_TYPE":"0","SEMIMAJOR_AXIS":"6917.875","PERIOD":"95.437","LAUNCH_DATE":"2022-01-06","TLE_LINE1":"1 50833U 22001AG  22323.89421215 -.00000828  00000-0 -33911-4 0  9999","FILE":"3663561","SITE":"AFETR","CENTER_NAME":"EARTH","MEAN_MOTION_DOT":"-0.00000828"},{"MEAN_MOTION_DDOT":"0.0000000000000","MEAN_MOTION":"15.08833431","ARG_OF_PERICENTER":"34.7691","RA_OF_ASC_NODE":"192.5708","CLASSIFICATION_TYPE":"U","ELEMENT_SET_NO":"999","TLE_LINE2":"2 50834  53.2158 192.5708 0002459  34.7691 325.3461 15.08833431 48213","BSTAR":"0.00002610900000","NORAD_CAT_ID":"50834","EPOCH":"2022-11-19T19:13:52.192992","APOAPSIS":"541.467","COUNTRY_CODE":"US","MEAN_ANOMALY":"325.3461","RCS_SIZE":"LARGE","MEAN_ELEMENT_THEORY":"SGP4","GP_ID":"218237356","OBJECT_ID":"2022-001AH","DECAY_DATE":null,"REV_AT_EPOCH":"4821","MEAN_MOTION_DOT":"0.00000127","CENTER_NAME":"EARTH","SITE":"AFETR","FILE":"3663561","TLE_LINE1":"1 50834U 22001AH  22323.80129853  .00000127  00000-0  26109-4 0  9995","LAUNCH_DATE":"2022-01-06","PERIOD":"95.438","SEMIMAJOR_AXIS":"6917.900","EPHEMERIS_TYPE":"0","OBJECT_NAME":"STARLINK-3331","PERIAPSIS":"538.064","INCLINATION":"53.2158","ECCENTRICITY":"0.00024590","REF_FRAME":"TEME","OBJECT_TYPE":"PAYLOAD","TIME_SYSTEM":"UTC"},{"MEAN_ANOMALY":"318.5995","COUNTRY_CODE":"US","DECAY_DATE":null,"OBJECT_ID":"2022-001AJ","REV_AT_EPOCH":"4821","RCS_SIZE":"LARGE","MEAN_ELEMENT_THEORY":"SGP4","GP_ID":"218238098","ELEMENT_SET_NO":"999","NORAD_CAT_ID":"50835","BSTAR":"-0.00006254400000","EPOCH":"2022-11-19T19:03:17.199648","APOAPSIS":"541.387","TLE_LINE2":"2 50835  53.2164 192.5969 0002328  41.5174 318.5995 15.08829705 48212","MEAN_MOTION":"15.08829705","ARG_OF_PERICENTER":"41.5174","CLASSIFICATION_TYPE":"U","RA_OF_ASC_NODE":"192.5969","MEAN_MOTION_DDOT":"0.0000000000000","ECCENTRICITY":"0.00023280","REF_FRAME":"TEME","INCLINATION":"53.2164","TIME_SYSTEM":"UTC","OBJECT_TYPE":"PAYLOAD","EPHEMERIS_TYPE":"0","SEMIMAJOR_AXIS":"6917.912","PERIOD":"95.438","PERIAPSIS":"538.166","OBJECT_NAME":"STARLINK-3310","TLE_LINE1":"1 50835U 22001AJ  22323.79394907 -.00001283  00000-0 -62544-4 0  9997","FILE":"3663561","LAUNCH_DATE":"2022-01-06","CENTER_NAME":"EARTH","MEAN_MOTION_DOT":"-0.00001283","SITE":"AFETR"}];
